Nom,Adresse,Code postal,Ville,Latitude,Longitude,EMail (pour annuaire),Téléphone professionnel (pour annuaire),Url,Page facebook  (pour annuaire),Domaine d'activité Principal (une seule activité)  (pour annuaire),Description de l'activité de l'entreprise (pour annuaire),Défi (pour annuaire),Bureau de change,
Biocoop - Le Quai des Halles,6 rue de Sébastopol,67000,Strasbourg,48.586201,7.743331,lequaideshalles@orange.fr,03 88 36 52 68,www.biocoop.fr/,https://www.facebook.com/BiocoopStrasbourg,2,Magasin de produits issus de l&#39;agriculture biologique,"Afin de mieux s'ancrer dans l'économie locale, il s'agit d'augmenter le référencement en produits locaux",1,
Amphora,23 rue du faubourg de Pierre,67000,Strasbourg,48.588002,7.745835,contact@amphora-artdevivre.fr,03 88 59 30 89,www.amphora-artdevivre.fr,,5,"Boutique, bar à soupe, jus bio, sauna-détente privatif, espace culturel, location de salle.\n ",Organiser un événement avec les professionnels du quartier pour mettre en place des synergies.,,
La Backerstub,2 place Clément,67000,Strasbourg,48.587159,7.743335,contact@labackerstub.fr,09 83 64 01 34,www.labackerstub.fr/,https://www.facebook.com/Labackerstub,2,"Boulangerie artisanale et salon de thé\nUne boulangerie 100% bio et artisanale qui privilégie le contact direct et vivant avec ses producteurs et ses clients. Une gamme innovante de pains au levain naturel à base de variétés anciennes, des viennoiseries pur beurre, une offre salée pour la pause déjeuner. Quelques produits sans gluten. Des ateliers, un brunch mensuel et des animations tout au long de l'année.",L'activité est encore en phase de gestation. Le défi consiste à la démarrer en mettant en pratique toutes les belles idées présentées.,1,
L'essentiel chez Raphaël,3 rue kurnagel,67200,Strasbourg,48.581496,7.71763,lessentielchezraphael@gmail.com,06 12 14 55 81,www.lessentiel-chez-raphael.bio,https://www.facebook.com/L.essentiel.chez.Raphael,16,"Food truck et traiteur V&eacute;g&eacute;talien Bio\nCuisine enti&egrave;rement faite maison, produits frais de saison et en majorit&eacute; locaux.\nBuffets/cocktails, banquets, ap&eacute;ritifs, ateliers de cuisine, &eacute;v&eacute;nements.\n&nbsp;",,,
4AS,4 Place Arnold,67000,Strasbourg,48.584945,7.7696,b.schwaller@4as-sas.com,06 15 75 73 33,,,18,Experts En Techniques Du Batiment,"Dans le but d'une meilleure transparence vis-à-vis es clients, il s'agit de mettre en place la traçabilité des produits proposés.",,
A Mi Chemin,87 Avenue des Vosges,67000,Strasbourg,48.591369,7.744289,laroche.mylene@free.fr,07 82 68 38 50,www.a-mi-chemin.eu/,https://www.facebook.com/amicheminft,16,Food truck Strasbourgeois,,,
Cyclorama,99 route du Polygone,67100,Strasbourg,48.565277,7.759893,cyclorama.strasbourg@gmail.com,06 16 56 22 62,www.cyclorama-strasbourg.eu,https://www.facebook.com/cyclorama.strasbourg?fref=ts,19,"Transport urbain de personnes en V&eacute;lo-Cal&egrave;che, V&eacute;lo-taxi, Rickshaw, Pedicab&hellip;",Il s'agit d'orienter l'activité de manière à tisser du lien ,,
Altschuh Philippe Chiropraxie,8 rue de Dettwiller,67200,Strasbourg,48.595554,7.725247,chirostras@gmail.com,09 86 26 29 89,www.chirostras.fr,,17,"Chiropraxie naturelle, manuelle, douce alliée à une grande technicité et des concepts novateurs.","Afin de développer le réseau des professionnels, il s'agit de réaliser cinq rencontres pour présenter le projet à d'autres professionnels et tenter de les intégrer au réseau.",,
Bretz'Selle,10 rue des bouchers,67000,Strasbourg,48.578687,7.751106,contact@bretzselle.org,09 51 29 87 59,www.bretzselle.org/,https://www.facebook.com/BretzSelle-259650114048517/timeline/,15,"Mise à disposition d'ateliers vélo équipés, apprentissage de la mécanique. ",,,
Ayurveda Gilles Déom,"25 boulevard du Président Wilson, 3e étage (ascenseur)",67000,STRASBOURG,48.589519,7.740231,gilles@deommm.com,06 59 57 20 98,www.deommm.com/,facebook.com/ayurveda.grace,17,"Thérapeute en Médecine Indienne. Consultations et soins. Outils: diagnostic par la prise de pouls ayurvédique, alimentation, massages, magnétisme, yoga, respiration, méditation, purification des corps et des lieux",Fabriquer son huile de massage; faire adhérer des nouveaux pros dans le réseau,,
Le plombier à vélo,7 rue de la vignette,67000,Strasbourg,48.582485,7.742434,contact@plombieravelo.com,07 82 72 38 84,www.plombieravelo.com/,https://www.facebook.com/leplombieravelo?fref=ts,9,Installation et d&eacute;pannage de sanitaires et chaudi&egrave;res. D&eacute;placements &agrave; v&eacute;lo.&nbsp;,"Dans un élan de solidarité avec le Stück, et afin de créer du lien entre ses usagers, il s'agit d'animer un atelier relatif à son c?ur de métier auprès des usagers du Stück.",,
La Maison de la Sagesse,15 rue Thiergarten,67000,Strasbourg,48.585231,7.737683,maisondelasagesse@yahoo.fr,06 50 67 75 02,,https://www.facebook.com/Librairie-Maison-de-La-Sagesse-325989680088/timeline/,6,Librairie de culture et spiritualit&eacute; musulmanes,"Dans un élan de solidarité avec le Stück, il s'agit de lui mettre à disposition des locaux et d'organiser un évènement afin de toucher de nouveaux publics",,
L'aventure moderne,6a quai Rellermann,67000,Strasbourg,48.585943,7.745107,pasquereau.nicolas@gmail.com,06 88 60 16 09,aventuremoderne.tf/,https://www.facebook.com/aventuremoderne/timeline,20,Designer graphique ind&eacute;pendant,L'activité est encore en phase de gestation. Le défi consiste à la démarrer en mettant en pratique toutes les belles idées présentées.,,
Pur Etc - Le PUR'Truck,19 rue du pigeon,67200,Strasbourg,48.596986,7.717375,nicolas.v@pur-etc.fr,06 22 00 13 52,www.pur-etc.fr/foodtruck-67/,,16,"Un fast Good !&nbsp;A tout moment de la journ&eacute;e, ils proposent des produits cuisin&eacute;s maison autour de fruits et l&eacute;gumes de saison, et font de la qualit&eacute; et de la proximit&eacute; des mati&egrave;res premi&egrave;res leur priorit&eacute; !","Afin de réduire le volume de déchets engendré par l'activité, il s'agit de remplacer les couverts jetables par des couverts lavables.",,
Velicious,43 rue Geiler,67000,Strasbourg,48.586079,7.770807,contact@velicious.fr,09 72 53 07 35,www.velicious.fr/,https://www.facebook.com/velicious.cafe/timeline,16,Salon de Café et Restaurant 100% végétal. Cuisine Végétalienne et Végétarienne.,"Afin de réduire l'impact des déchets engendrés par l'activité, il s'agit d'organiser la valorisation des déchets organiques de la cuisine.",,
Amarantho,1 place de la porte blanche,67000,Strasbourg,48.58009,7.731705,hello@amarantho.fr,07 83 22 15 87,www.amarantho.fr/,https://www.facebook.com/agence.amarantho,20,"Agence de communication collaborative, durable et solidaire.",L'activité est encore en phase de gestation. Le défi consiste à la démarrer en mettant en pratique toutes les belles idées présentées.,,
Top print,1 rue déserte,67000,Strasbourg,48.583646,7.737275,topprint@wanadoo.fr,03 88 23 00 01,www.topprint.strasbourg.free.fr/,,14,Service de photocopie et reprographie.,"Dans le but de créer du lien avec les enfants et de participer au développement de leur créativité, il s'agit de proposer un atelier de création de badges dans une école du quartier.",,
Elovio (Pur etc),15 place Saint-Etienne,67000,Strasbourg,48.583078,7.754823,contact@pur-etc.fr,09 81 02 33 37,www.pur-etc.fr/strasbourg/#tab-1,https://www.facebook.com/puretc/info?tab=page_info,16,"PUR etc : un fast Good ! A tout moment de la journée, nous vous proposons des produits cuisinés maison autour de fruits et légumes de saison, et faisons de la qualité et la proximité de nos matières premières notre priorité !",,,
Brasserie La Mercière,17 rue Principale,67310,COSSWILLER,48.623776,7.700657,brasserie@la-merciere.fr,06 76 51 77 87,www.la-merciere.fr,https://www.facebook.com/Brasserie-La-Merci%C3%A8re-270701163075517/timeline/,1,Brasserie artisanale\n\n ,"Dans un élan de solidarité avec Le Stück, il s'agit d'organiser un apéro visant à augmenter la visibilité de l'association et de ses valeurs.",,
Hôtel Graffalgar,"17, rue Déserte",67000,STRASBOURG,48.583379,7.735773,direction@graffalgar.com,03 88 24 98 40,www.graffalgar-hotel-strasbourg.fr/,https://www.facebook.com/graffalgar/?fref=ts,10,Hôtel novateur qui vous fera découvrir un Strasbourg alternatif!,"Afin de réduire l'impact des déchets engendrés par l'activité et sa clientèle, il s'agit de mettre en place des poubelles de tri sélectif dans les chambres et d'organiser la valorisation des déchets organiques de la cuisine.",,
Cécile,67100,Strasbourg,48.563817,7.755171,emelinehubert@gmail.com,06 84 48 92 36,www.emelinehubert.com/,https://www.facebook.com/Soimaime.EmelineHubert.Psychologiepositive?fref=ts,17,"Psychologie positive, mieux-&ecirc;tre et d&eacute;veloppement personnel","Afin de développer le réseau des professionnels, il s'agit de réaliser cinq rencontres pour présenter le projet à d'autres professionnels et essayer de les intégrer au réseau.",,
Kitsch'n bar,8 Quai Charles Altorffer,67000,Strasbourg,48.582373,7.737981,kitschnbar@hotmail.fr,03 88 36 31 20,,https://www.facebook.com/Kitschn-Bar-109690228469/timeline/,16,"Ambiance r&eacute;tro et d&eacute;contract&eacute;e. Soir&eacute;es, grande terrasse et un baby-foot au sous-sol.","Dans un élan de solidarité avec Le Stück, il s'agit d'organiser un événement visant à augmenter la visibilité de l'association et de ses valeurs. Explorer également la possibilité d'installer un rideau au niveau de la porte pour isoler l'intérieur.",,
Cabinet de Sage Femme Caroline Schoch,49 rue de la Vallée,67140,Barr,48.40514,7.433023,carolineschoch@yahoo.fr,06 22 35 21 89,,,17,Cabinet Sage Femme situ&eacute; &agrave; Barr!,"Afin de rééquilibrer vie professionnelle / vie privée, il s'agit de diminuer le temps de travail à l'hôpital pour atteindre 35h de travail cumulé hôpital-cabinet libéral",,
OZETIK,2 rue de la division Leclerc,67000,Strasbourg,48.601986,7.783522,ozetik@gmail.com,06 28 27 90 21,ozetik.com/,https://www.facebook.com/ozetik/timeline,7,Produits alternatifs écologiques et éthiques pour la vie quotidienne,"Afin de toucher une autre population, il s'agit d'effectuer un ou plusieurs ateliers dans 2 à 3 structures visant des publics défavorisés (Centres socio-culturels / Associations des habitants)",,
Ferme Saint Blaise,Route de Meistratzheim,67210,Valff,48.427853	,7.535766,ferme.stblaise@wanadoo.fr,03 88 08 71 73,www.alsacebio.com/producteurs_detail.php?art=5,https://www.facebook.com/FermeSaintBlaise/info?tab=overview,1,"Légumes, pommes de terre et céréales en agriculture biodynamique depuis 1996.","Il s'agit d'étudier le prix de revient de 6 produits de la ferme et de partager les résultats avec les autres agriculteurs, pour une meilleure prise de conscience du juste prix ",,
Vins Gérard Goepp,21 rue de la Montagne,67140,Heiligenstein,48.42103,7.448144,goepp@orange.fr,03 88 08 95 75,www.tourisme-alsace.com/fr/213007126-Vins-GOEPP-Gerard.html,,1,Production et vente directe de vins.,"Afin de parfaire la connaissance des impacts de la production intensive, il s'agit de participer à une formation sur des pratiques de production écologique",,
Ferme des Hutten,100 route romaine,67220,Saint-Pierre-Bois,48.313668,7.358508,vlauler@yahoo.fr,06 84 45 12 62,www.mafermebio.net/producteurs/fermehutten,,1,"Ferme Bio / Vente directe / AMAP, vaches issues des races Charolaise et Salers. ","Afin de rééquilibrer vie professionnelle / vie privée, il s'agit de s'organiser 1 semaine de congé avec sa compagne",,
Brasserie Bendorf,114 rue Jean Jaures,67100,Neudorf,48.566518,7.775391,brasserie.bendorf@gmail.com,06 70 55 72 08,brasserie-bendorf.fr/home.html,https://www.facebook.com/pages/Bendorf/321939997912528?sk=info&tab=page_info,1,Une micro brasserie strasbourgeoise!,"Afin de diversifier l'offre et de toucher un nouveau public, expérimenter des recettes de bière à base de houblon certifié bio (américains et/ou alsaciens). Organiser un test à l'aveugle à destination de membres de l'association.",,
Les vins biodynamiques,19 rue des Ormes,67000,Strasbourg,48.596318,7.719488,lvbiodynamiques@gmail.com,06 74 01 03 20,,https://www.facebook.com/Les-Vins-Bio-Dynamiques-Strasbourg-541516899270827/timeline/,2,Vins bio dynamiques dans le secteur de Strasbourg!,"Afin d'ancrer son activité localement, il s'agit d'intégrer au moins un domaine alsacien en biodynamie dans son catalogue.",,
"N. Taiana, ostéopathe",8 place de la gare,67000,Strasbourg,48.583989,7.736006,contact@osteopathe-taiana.com,03 88 23 24 33,www.osteopathe-taiana.com/osteopathe-bebe-strasbourg-6.html,,17,L&#39;ost&eacute;opathie peut soulager diff&eacute;rentes douleurs et probl&egrave;mes fonctionnels. Nicolas Taiana vous re&ccedil;oit sur rendez-vous pour une s&eacute;ance d&rsquo;ost&eacute;opathie&nbsp; dans son cabinet ou &agrave; domicile.,"Afin de poursuivre la démarche globale de réduction de l'impact de son activité, il s'agit de se renseigner sur les impacts de sa banque et d'étudier s'il est possible de trouver mieux. Si c'est possible, changer de partenaire financier.",,
L'Atelier Culturel,10 rue du Hohwald\nchez Elektramusic,67000,Strasbourg,48.601986,7.783522,latelierculturel@gmail.com,07 64 07 42 24,atelierculturel.com/,https://www.facebook.com/culturelatelier?ref=ts&fref=ts,6,Fabrique de culture et de citoyennet&eacute;.&nbsp;Association pour un tiers-lieu culturel exp&eacute;rimental,"Avec pour objectif la sensibilisation à l'extraction et l'élimination des composants des appareils électroniques, il s'agit de mettre en place des formations sur les nano ordinateurs",,
Le Divanoo,25 Route de Bischwiller,67800,Bischheim,48.613221,7.751628,contact@divanoo.eu,03 88 81 29 48,www.divanoo.eu/,https://www.facebook.com/Le-divanoo-212477995447731/timeline/,16,Lieu convivial et belles rencontres autour de la cuisine et langues du monde.,"Afin de réduire l'impact des déchets engendrés par l'activité, il s'agit d'organiser la valorisation des déchets organiques et d'organiser une réunion collective avec la maison du compost en vue de créer une dynamique de quartier",1,
Professeur de chant Thérèse Berger,15 rue de la costelle,67420,SAULXURES,48.395030,7.124265,therese.berger46@gmail.com,06 30 57 87 92,www.laclefduchant.net/,,13,"Mezzo-soprano et professeur de chant; enseigne  dans les écoles de musique de Barr et Entzheim, ainsi qu'en cours privé à son domicile à Boersch.","Afin de s'affranchir du monopole de grands développeurs de systèmes d'exploitation et de logiciels, il s'agit d'utiliser un système d'exploitation et des logiciels libres, permettant les mêmes fonctionnalités.",,
L'intenable,41 rue du général Gouraud,67210,Obernai,48.462228,7.484135,bar.lintenable@gmail.com,03 88 33 29 90,,https://www.facebook.com/lintenable?fref=ts,16,Un bar convivial o&ugrave; r&egrave;gne la bonne humeur !&nbsp;,"Il s'agit de trouver une boulangerie locale et si possible bio pour se fournir en pain, afin de privilégier les circuits courts et locaux.",,
Notre Idée Fixe,10 place des 24 Comptes,67120,Molsheim,48.544431,7.49224,notre.ideefixe@facebook.com,03 90 23 76 99,,https://www.facebook.com/notre.ideefixe,16,Bar avec une impressionnante carte de whiskies et de bi&egrave;res. Animations en soir&eacute;es.,"Afin de réduire l'impact de l'activité sur la qualité de l'eau, il s'agit de nettoyer le local avec des produits eco-labellisés et/ou faits maison.",,
Pascale Giraud - Psychologue,6 Place d'Austerlitz,67000,Strasbourg,48.578214,7.754274,contact@pascalegiraud.com,03 88 36 42 21,www.pascalegiraud.com/,,17,Psychologue clinicienne dipl&ocirc;m&eacute;e de la facult&eacute; de Strasbourg (orientation psychanalytique). La Gestalt-th&eacute;rapie est son approche principale.,"Afin de toucher une autre population, il s'agit de travailler en partenariat avec une association de quartier pour lui faire profiter de ses compétences.",,
Pur Etc - St Etienne,15 Place Saint Etienne,67000,Strasbourg,48.583078,7.754823,,09 81 02 33 37,www.pur-etc.fr,https://www.facebook.com/puretc/info?tab=page_info,16,"Un fast Good !&nbsp;A tout moment de la journ&eacute;e, ils proposent des produits cuisin&eacute;s maison autour de fruits et l&eacute;gumes de saison, et font de la qualit&eacute; et de la proximit&eacute; des mati&egrave;res premi&egrave;res leur priorit&eacute; !","Afin de réduire le volume de déchets engendré par l'activité, il s'agit de remplacer les couverts jetables par des couverts lavables.",,
Pur Etc - Grand Rue,"122, Grand Rue",67000,Strasbourg,48.581236,7.744909,contact@pur-etc.fr,09 83 78 38 79,www.pur-etc.fr,https://www.facebook.com/puretc/info?tab=page_info,16,"Un fast Good ! A tout moment de la journ&eacute;e, ils proposent des produits cuisin&eacute;s maison autour de fruits et l&eacute;gumes de saison, et font de la qualit&eacute; et de la proximit&eacute; des mati&egrave;res premi&egrave;res leur priorit&eacute; !","Afin de réduire le volume de déchets engendré par l'activité, il s'agit de remplacer les couverts jetables par des couverts lavables.",,
Pur Etc - Les Halles,Centre Commercial des Halles (devant les Galeries Gourmandes),67000,Strasbourg,48.5873147,7.742450899999994,contact@pur-etc.fr,09 81 09 10 40,www.pur-etc.fr,https://www.facebook.com/puretc/info?tab=page_info,16,"Un fast Good !&nbsp;A tout moment de la journ&eacute;e, ils proposent des produits cuisin&eacute;s maison autour de fruits et l&eacute;gumes de saison, et font de la qualit&eacute; et de la proximit&eacute; des mati&egrave;res premi&egrave;res leur priorit&eacute; !","Afin de réduire le volume de déchets engendré par l'activité, il s'agit de remplacer les couverts jetables par des couverts lavables.",,
Les Jardins de la Montagne Verte,5 avenue du cimetière,67200,STRASBOURG,48.579225,7.722292,a.hellemans@association-jmv.org,03 88 29 36 33,www.jardins-montagne-verte.com,Les jardins de la montagne verte,1,chantier d'insertion professionnelle par la production de légumes biologiques,réaliser 50 % de la recette mensuelle en stück d'ici fin 2018,,
Du pain et des gâteaux,"17, rue Geiler",67000,Strasbourg,48.58702,7.767711,,03 88 60 01 89,,,2,"Boulangerie de quartier, ind&eacute;pendante, avec des produits faits maison.",Choisir des produits d'entretien écologiques et reduire l'utilisation des essuis-mains à usage unique,,
EARL A et A Durrmann,"11, rue des Forgerons",67140,Andlau,48.385839,7.415861,agroecologievin@free.fr	 ,03 88 08 26 42,www.durrmann.fr,,1,Production de vins biologiques,"Afin de réduire l'impact de la production sur l'environnement, il s'agit de mettre en place une récupération des bouteilles auprès des particuliers.",,
Labo 1000,"4, rue de la Bonde",67300,Schiltigheim,48.605243,7.752327,labo.1000@wanadoo.fr,03 88 81 10 24,www.labo1000.com,,3,Photographe,"Afin de participer au développement du Stück, il s'agit de mettre en place un bureau de change.",,
Concept fibres et formes,17 rue sainte madeleine,67000,Strasbourg,48.579965,7.75365,concept.fibres.formes@gmail.com,09 51 32 64 01,www.vetementbio.com/,https://www.facebook.com/ConceptFibresFormes,8,Vente de v&ecirc;tements certifi&eacute;s bio et &eacute;quitable.,"Dans le but d'une meilleure transparence vis-à-vis es clients, il s'agit de mettre en place la traçabilité des produits proposés.",,
Ilot de la Meinau,36 Route de la Fédération,67100,Strasbourg,48.562398,7.745579,contact@lilotdelameinau.fr,06 11 21 27 74,www.lilotdelameinau.fr,,1,Agriculture raisonn&eacute;e,"Afin de réduire l'impact sur l'environnement, il s'agit de supprimer l'usage des sacs en plastiques.",1,
La P'tite Graine,4 avenue de la gare,67560,Rosheim,48.497786,7.479643,,03 88 50 44 70,,,2,"Magasin bio : alimentation, soin-hygiène, lectures",Mettre en place des frigos avec porte et communiquer au réseau du stück les solutions possibles et les gains en énergie,1,
Petite Fleur Sauvage,65 route de Bischwiller,67800,Bischheim,48.613221	,7.751628,contact@petitefleursauvage.com,06 28 32 29 58 ,petitefleursauvage.com,www.facebook.com/petitefleursauvage,8,"V&ecirc;tements confortables, tissu bio, atelier de recyclage, patronage, mode locale",Organiser une journée de vide-dressing en utilisant le stück comme monnaie d'échange,,
Herrmann - Les Jardins Gourmands,"9, rue des vergers",67270,Duntzenheim,48.710221,7.533602,contact@fruits-herrmann.fr,03 88 70 57 10,www.fruits-herrmann.fr,https://www.facebook.com/La-ferme-Herrmann-Les-jardins-gourmands-418640164982157/?fref=ts,1,"Fruits et l&eacute;gumes issus de l&#39;agriculture biologique, locale et raisonnable !",Explorer les solutions pour améliorer le traitement des déchets bois et carton.,,
Cercle de l'Aviron de Strasbourg,Ile Weiler / Quai Jean-Pierre Mayno,67000,Strasbourg,48.573054,7.736067,club@cercleavironstrasbourg.eu,06 58 60 31 75,www.cercleavironstrasbourg.eu/,,13,"Aviron découverte, loisir, stages, randonnées, séances de fitness.",Installer des toilettes sèches sur l'ile,,
Librairie Kléber,1 rue des Francs Bourgeois,67000,Strasbourg,48.582807,7.745598,,03 88 15 78 88,www.librairie-kleber.com/,https://www.facebook.com/Librairie-Kl%C3%A9ber-Salle-Blanche-348222038542101/?ref=ts&fref=ts,6,"Large choix de livres, conférences et rencontres avec écrivains et auteurs",Devenir un point de distribution AMAP,1,
Défi Ecologique,16 rue de Verdun,67600,Selestat,48.583803,7.746569,julien@defi-ecologique.com,06 71 10 97 33,www.defi-ecologique.com/,https://www.facebook.com/DEFI-Ecologique-1379441148983526/?fref=ts,18,"Aménagements «biodiversité» (conseil et intervention), diagnostics, signalétique, contrôle",Mettre en place des journées incompressibles et travailler avec Cooproduction pour rendre possible le paiement en stück,,
Caroline Gauton Shiatsu,12 rue du Faubourg de Pierre,67000,Strasbourg,48.587569,7.746343,carolinegauton.shiatsu@gmail.com,06 24 70 11 33,www.shiatsu-strasbourg-gauton.com/,https://www.facebook.com/ShiatsuTherapeutiqueStrasbourg,5,"Praticienne agr&eacute;e France Shiatsu. Cabinet de Shiatsu situ&eacute; &agrave; Strasbourg, et de mani&egrave;re occasionnelle sur rendez-vous &agrave; Epinal.",Créer un goupe local de professionnels du stuck sur le quartier 'tribunal-halles,,
Retour aux sources,"5, rue Boudhors",67000,Strasbourg,48.580058,7.736546,alain.vadot@orange.fr,06 14 09 05 09,,,9,G&eacute;obiologie et sant&eacute; de l&#39;habitat,Convaincre 5 professionnels de rejoindre le réseau,,
La Maison du Compost,4 rue de Dachstein,67200,Strasbourg,48.565092,7.707369,lamaisonducompost@gmail.com,,lamaisonducompost.fr/,https://www.facebook.com/lamaisonducompost/,4,Accompagnement dans la  pratique du compostage individuel ou collectif,Rencontrer des professionnels du stück pour les aider à installer un compost,,
Pascal Léval - Naturopathe,2 rue de la Laine,67160,WISSEMBOURG,49.037911,7.946789,,03 88 72 18 20,www.pascal-leval.fr,,5,"Naturopathie, Bioélectronique de Vincent, Bol d'air Jacquier",Aider le Stück à s'implanter dans le Nord de l'Alsace,,
Au Fil du Vin Libre,26 Quai des Bateliers,67000,Strasbourg,48.580749,7.753956,jean.aufilduvinlibre@orange.fr,03 88 35 12 09  ,www.aufilduvinlibre-strasbourg.com,https://www.facebook.com/AuFilDuVinLibre/,2,"Cavistes qui partagent leurs découvertes, coups de coeurs, raretés",Sensibiliser les vignerons alsaciens afin qu'ils se coordonnent pour mutualiser leurs livraisons,,
Brandin Claire,12 rue du collège,67140,Barr,48.406666,7.447186,contact@clairebrandin.com,06 81 13 76 32,www.clairebrandin.com,www.facebook.com/claire.brandin,8,"Corsets, costumes et formations.\n\nAtelier show-room ouvert sur rendez-vous",Améliorer le tri et la revalorisation des déchets,1,
ARES,10 rue d'Ankara,67000,Strasbourg,48.575363,7.771395,contact@ares-actif.fr,03 88 61 63 82,www.ares-actif.fr/,https://www.facebook.com/aresactif,7,Association de quartier et centre socio culturel de l&#39;Esplanade &agrave; Strasbourg.,Travailler sur le gaspillage alimentaire de l'accueil de loisir,,
Chadabask Bals Sauvages,chez Simon Garcia\n15 rue Charles Grad,67000,Strasbourg,48.593494,7.76223,balssauvages@gmail.com,06 59 07 30 47,balssauvages.blogspot.fr,https://www.facebook.com/groups/123381200966/?fref=ts,13,Organisation de bal sauvage\n&nbsp;,Communiquer auprès de ses prestataires sur le projet du Stück,,
Cinq Plus Steeve Ambiehl,2 rue Thomas Edison,67450,Mundolsheim,48.642286,7.728047,steeve.ambiehl@cinqplus.com,06 81 50 03 46,www.cinqplus.com,,18,Expert comptable,Rédiger une note sur la comptabilité et la gestion en caisse des Stücks et la présenter au grpe réseau + collège des pros,,
Restaurant du Tilleul,296 rue Principale,67210,Valff,48.419935	,7.529896,info@restaurant-du-tilleul.com,03 88 08 20 65,www.restaurant-du-tilleul.com/,https://www.facebook.com/RestaurantDuTilleulValff,16,"Restaurant gastronomie alsacienne, une cuisine bourgeoise et raffin&eacute;e.",Lister les entreprises susceptibles d'utiliser les stück parmi les parents des enfants du resto scolaire,,
Ferme Kikiriki,48 rue principale,67210,Goxwiller,48.4327096,7.484881299999984,frantzwelt@gmail.com,+33(0)7 87 54 03 20,,,1,"Paysan boulanger : Pain au levain, farine, fruits de saison, jus de fruits (AB)",Améliorer l?équilibre vie professionnel/vie privée : partir deux semaines en vacances,,
Domaine Heywang,7 rue principale,67140,Heiligenstein,48.425869,7.450491,contact@heywang-vins.fr,03 88 08 91 41,heywang-vins.fr,www.facebook.com/domaineheywang,1,"Vins d&#39;Alsace en Agriculture Biologique\nKlevener de Heiligenstein, Grand Cru Kirchberg, c&eacute;pages traditionnels\n\n&nbsp;",Inciter au moins deux de ses vendangeurs à accepter les stücks,,
Ferme de Truttenhausen,GAEC Ferme de Truttenhausen,67140,Heiligenstein,48.425256,7.430461,ph.lenormand71@gmail.com ,03 88 08 24 33,truttenhausen.jimdo.com,https://www.facebook.com/Ferme-de-Truttenhausen-279182492257382/?fref=ts,1,Ferme biodynamique,Inciter la moitié des employés  acceptent qu'une partie de leur rémunération leur soit versée en stücks,,
Restaurant Maison Louise ESPERANCE,93 rue principale,67210,Meistratzheim,48.448079	,7.548845,,03 88 50 68 47,www.lamaisonlouise.com,,16,"Cuisine familiale et produits locaux, avec une carte au fil des saisons.",Migrer vers des solutions libres pour ses outils informatiques,,
Michel Francis Artisan électricien (siège),"3 bis, Haut du Harcholet",88210,Le Saulcy,48.421209,7.052401,,06 71 47 63 29,,,9,Autonomie Energ&eacute;tique Photovolta&iuml;que\nInstallation en Bio-Electricit&eacute;,"Se renseigner et communiquer sur les procédés de fabrication des matériaux et sur les aspects sociétaux des fabricants, pour le fournisseur Voltec.",,
Librairie Chapitre 8,5 rue de Verdun,67000,STRASBOURG,48.58564,7.770411,chapitre.8@orange.fr,03 88 61 78 37,chapitre8.com/,https://www.facebook.com/pages/Chapitre-8/128410237210711?fref=ts,6,Librairie ind&eacute;pendante.,Mettre en place un rayon militant,,
Association Beudeux,9 rue des myosotis,67205,oberhausbergen,48.604179,7.693329,,,www.beudeux.com/,https://www.facebook.com/beudeux/?fref=ts,6,Edition de Bandes Dessinées,"A définir lors de discussions entre le bénévole et l'assoc', puis à confirmer par mail avec le CAP",,
PC services Images et Son,13 rue des Corps de Garde,67100,Strasbourg,48.559856,7.779542,durr@pcsis.fr,06 82 51 10 48,www.pcsis.fr/,,12,"Assistance en informatique, sur internet,  dépannage logiciel et matériel. ",Trouver un débouché pour ses déchets électroniques,,
Les Z'ailes,37 rue de la République,67720,WEYERSHEIM,48.713798,7.801589,adeline@leszailes.fr,06 63 40 10 78,www.leszailes.fr,,18,"Révélatrice de superpouvoirs :) . Accompagne les individus et les équipes à développer des innovations sociales, une manière de faire les mêmes en mieux, pour soi et pour tous.",Mesurer l'impact de ses déplacements et trouver une manière de compenser localement,,
Alsétic,20 rue du Village,67310,Dangolsheim,48.571154,7.466031,contact@alsetic.fr,09 50 93 09 30,www.alsetic.fr/,,20,Cr&eacute;ation de sites Internet &eacute;thiques et &eacute;cologiques.,Inciter 100% de ses nouveaux clients à prendre une solution d'hébergement pour leur site internet ,,
Marine Trevisan,6 Quai St-Jean,67000,Strasbourg,48.58326,7.738322,marine.energetique@gmail.com,06 20 39 77 81,www.energetique-chinoise-strasbourg.com/,,17,"Cabinet d'énergétique traditionnelle chinoise, acupuncture, Tuina, ventouses ; pharmacopée chinoise, réharmonisation énergétique ","Engager une reflexion sur la réduction des draps jetables, et en partager les conclusions avec le réseau des professionnels",,
NJ Near,4 rue du Château,67310,Scharrachbergheim,48.593421,7.495463,njnear36@gmail.com,06 99 35 98 91,,https://www.facebook.com/NJ-Near-1607456599505592/?fref=ts,18,D&eacute;veloppement d&#39;outils de gestion personnalis&eacute;e pour les entreprises.,"Trouver un débouché pour les déchets électroniques, mutualiser ce traitement avec les professionnels de son village et en partager la solution avec les membres du réseau.",,
Pur etc - Malraux,11 Presqu'île Malraux,67100,Strasbourg,48.574089,7.761746,contact@pur-etc.fr,06 22 00 13 52,www.pur-etc.fr/strasbourg/,https://www.facebook.com/puretc/?fref=ts,16,"Un fast Good !&nbsp;A tout moment de la journ&eacute;e, ils proposent des produits cuisin&eacute;s maison autour de fruits et l&eacute;gumes de saison, et font de la qualit&eacute; et de la proximit&eacute; des mati&egrave;res premi&egrave;res leur priorit&eacute; !","Afin de réduire le volume de déchets engendré par l'activité, il s'agit de remplacer les couverts jetables par des couverts lavables.",,
Nature à coeur,14 rue de la batterie,67118,Geispolsheim,48.538706	,7.685156,dl@natureacoeur.fr,03 88 39 86 20,https://www.natureacoeur.fr/,https://www.facebook.com/Nature-%C3%A0-Coeur-1426434257576517/?fref=ts,17,"Articles originaux allant dans le sens de la vie, de l?énergie et du bien-être.",Mettre en place un jardin partagé type incroyables comestibles,,
Francis Michel Artisan Electricien,Gesang\n25 rue d'Alsace,67300,SCHILTIGHEIM,48.6070351,7.757249099999967,francis.michel3@wanadoo.fr,06 71 47 63 29,cepa.club/francismichel.html,,9,"Autonomie Energétique Photovoltaïque, Installation en Bio-Electricité","Se renseigner et communiquer sur les procédés de fabrication des matériaux et sur les aspects sociétaux des fabricants, pour le fournisseur Voltec.",,
BiObernai,33 rue Gnl Gouraud,67210,Obernai,48.460307,7.48611,maurice.meyer@alsacebio.com,,www.biobernai.com,,4,"Organisation du salon BiObernai par l&#39;association Alsace Bio et sABa. La prochaine &eacute;dition du salon de l&#39;agriculture biologique en Alsace aura lieu les 15, 16 et 17 septembre 2017.&nbsp;\n&nbsp;",Veiller à ce que les fournitures et outils de communication soient achetés en local pour 2017.,,
Gîte Les Tilleuls,Ferme Lindgrube,67220,Breitenbach,48.371494,7.307724,vlauler@yahoo.fr,06 84 45 12 62,www.lindgrube.fr/tilleuls.php,,10,"Ferme Bio ( agriculture, viande, vente directe, AMAP). Location de g&icirc;tes &agrave; Breitenbach","Afin de rééquilibrer vie professionnelle / vie privée, il s'agit de s'organiser 1 semaine de congé avec sa compagne",,
Ferme Lindgrube,Ferme Lindgrube,67220,Breitenbach,48.371531,7.307646,laulergerard@hotmail.fr,03.88.57.29.41,www.lindgrube.fr,,1,"Ferme bio : lait, yaourts, crèmes desserts, fromage blanc, bargkas, munster.",Tendre vers des autonomies fourragère et énergétique par la construction d'un système de séchage de foin en grange. ,,
Kuirado,19 route des Romains,67200,Strasbourg,48.580768	,7.723762,,06 23 57 81 12,,https://www.facebook.com/kuirado67/,18,Centre culinaire et collaboratif.&nbsp;&quot;Espace de libert&eacute; et de cr&eacute;ation culinaire&quot;,Officialiser la pratique bio,,
Simon François Psychothérapeuthe,8 Impasse de personne,67600,Selestat,48.259631	,7.451747,simonselestat@aol.com,03 88 92 88 88,,,17,"Psychothérapie (Gestalt), individuel et couple. ",Démarcher activement l'antenne locale CPG ,,
Gîte Les Cerisiers,ferme Lindgrube,67220,Breitenbach,48.371594,7.307536,laulergerard@hotmail.fr,03.88.57.29.41,www.lindgrube.fr/cerisiers.php,,10,"Ferme Bio ( agriculture, viande, vente directe, AMAP). Location de g&icirc;tes &agrave; Breitenbach",Tendre vers des autonomies fourragère et énergétique par la construction d'un système de séchage de foin en grange.,,
Restaurant L'acoustic,5 place du marché vert,67600,Selestat,48.259515	,7.455633,restobiolacoustic@gmail.com,03 88 92 29 40,www.restobiolacoustic.com,https://www.facebook.com/restobiolacoustic/,16,Ce Resto Bio &nbsp;vous accueille dans un charmant caveau vo&ucirc;t&eacute; en briques rouges. Tous les ingr&eacute;dients qui entrent dans la composition des plats pour les moins atypiques sont d&#39;origine 100% biologique.,Mettre en place la traçabilité de ses denrées et proposer 5 nouveaux professionnels pour agrandir le réseau du stück,1,
Boutique Céleste,30 Grand'rue,67000,Strasbourg,48.582469	,7.740346,celeste@boutiqueceleste.com,09 80 31 98 49,www.boutiqueceleste.com,https://www.facebook.com/celestestrasbourg,8,"Bijoux de cr&eacute;ateurs, v&ecirc;tements, accessoires , papeterie et objets de d&eacute;co.","Mettre en place un affichage/informer de la traçabilité des produits (origine, matériaux)",,
Les jardins de Gaïa,6 rue de l'écluse,67820,Wittisheim,48.267797	,7.598279,courriervpc@jardinsdegaia.com,03 88 85 88 30,www.jardinsdegaia.com,https://www.facebook.com/jardinsdegaia,2,Thés et tisanes issus de l'agriculture biologique et du commerce équitable.,Expérimenter des instance de participation de l'ensemble des salariés à la gouvernance,,
Psychanalyste - Anne Herriot,1 a rue Laurent HEYD,67380,LINGOLSHEIM,48.554457	,7.681749,,03 88 12 50 57,,,17,Psychanalyse et activités d'orientation scolaire.,Mobiliser 4 professionnels de santé et les inciter à rentrer dans le réseau,,
Cityzenbike,4 rue du faubourg de saverne,67000,Strasbourg,48.584936	,7.740825,,03 88 75 01 53,www.cityzen-bike.com/,https://www.facebook.com/pages/CityZenBike/111874732166812,19,Vente et r&eacute;paration de v&eacute;los proche de chez vous.,Afficher la provenance des produits et des marchandises façon étalage de légumes,,
Jean-Philippe GOOS,7 rue Pasteur,67113,BLAESHEIM,48.50383	,7.604402,,03 88 68 88 61,,,1,Culture d'arbres fruitiers avec des méthodes manuelles et d'agriculture raisonnée.,"Inciter les clients à venir avec leur propre panier / arrêter les sachets plastiques OU évoluer vers bout/bocal consignés, récupérés",,
Frey-Bastien Nancy Ortho-bionomy,15 rue des Vosges,67560,ROSHEIM,48.4961093,7.45970710000006,info@nancyortho.fr,06 33 25 97 70,nancyortho.fr,http://nancyortho.fr/,17,"Soins manuels doux dont la source est l'ostéopathie.\naide pour libérer le corps de ses tensions physiques, émotionnelles et énergétiques.",Parler du Stück dans le réseau des ortho bionomystes,,
Guillaume RANCHOUX,2 rue des chevaliers,67600,Selestat,48.259671	,7.455474,ranchoux.naturo@gmail.com,06 69 19 43 55,www.homegaia.fr,https://www.facebook.com/guillaume.bio/,17,"Naturopathie, somatothérapie, massages holistiques, réflexologie",Mesurer ses dépenses énergétiques,,
Day by Day,90 route du Polygone,67100,STRASBOURG,48.565826,7.759039,,03 88 41 63 35,daybyday-shop.com/vrac,https://www.facebook.com/pages/Day-By-Day/493700694148787?fref=ts,2,"Epicerie vendant des produits alimentaires, d&#39;hygi&egrave;ne et d&#39;entretien en vrac.\n\n\n\n&nbsp;",Chercher des débouchés et les mettre en pratique pour les seaux et bidons vides,1,
Krüt'herbes,68 rue de Zürich,67000,Strasbourg,48.578579,7.758956,krutherbes@gmail.com,03 88 38 87 60,www.krutherbes.fr/,https://www.facebook.com/krutherbes,16,"Restauration, traiteur, vente de produits d'épicerie et distribution des paniers AMAP",Intervention autour du juste prix.,,
Le Rutsch,9 Rue du Renard Prêchant,67000,Strasbourg,48.57922,7.757779,restaurant@le-rutsch.fr,03 88 25 20 20,le-rutsch.fr/,https://www.facebook.com/Le-Rutsch-810262925675876/timeline,16,"Cuisine de terroir et de saison, à partir de produits frais du marché. ","Trouver deux nouveaux fournisseurs bio (produits alimentaires, produits d'entretien ?) ",,
Havre de beauté,12 rue du renard prêchant,67000,Strasbourg,48.579313,7.757637,info@havredebeaute.fr,03.88.35.73.42,www.havredebeaute.fr,https://www.facebook.com/Havre-de-Beaut%C3%A9-143930155650438/?fref=ts,5,"Esthétique, bien-être, massage énergétique (médecine chinoise)","valoriser des produits locaux, ou un acteur local dans la boutique, éventuellement pour un usage professionnel.",,
Boulangerie Turlupain,ZA chemin de la Pierrechelle,67420,Saâles,48.349241	,7.121544,turlupain@orange.fr,03 88 47 76 39,www.turlupain.com,,2,Le pain bio au levain pur\nChauffage direct au bois,Participer au développement du Stück en organisant  2 rencontres informatives sur l'année.  ,,
La Table Verte,73 rue principale,67206,Mittelhausbergen,48.614536,7.694553,latableverte@orange.fr,03 88 23 02 60,www.latableverte.com,https://www.facebook.com/latableverte.strasbourg/?fref=ts,16,"Restaurant &eacute;picerie traiteur, sur place, &agrave; emporter, en livraison",Création d'un compostage sur place,,
Cordonnerie MAS,21 rue des charpentiers,67000,Strasbourg,48.583921,7.752639,cordonneriemas@orange.fr,03 88 36 98 04,,https://www.facebook.com/Cordonnerie-MAS-309368069249754/,3,"S&eacute;bastien r&eacute;nove ou patine les cuirs avec talent. Il donne une seconde jeunesse &agrave; vos sacs, vos ceintures, vos chaussures, vos semelles et vos talons !",,,
Banos Nathalie - Créatrice d'impression,53A rue de Molsheim,67280,Urmatt,48.527943,7.32049,bleulichen@gmail.com,03 88 48 01 75,www.nathaliebanos.com,https://www.facebook.com/feutreries/,3,Création d'impressions destinées à la décoration d'intérieur,Présenter le stück à la FREMAA,,
Chloé K.* - Photographe,"36, rue du soleil",67800,hoenheim,48.619009	,7.756942,chloeka@yahoo.fr,06 61 58 61 69,www.chloeka.com,https://www.facebook.com/chloekacom/,3,"Croqueuse de lumi&egrave;res, photographe d&#39;art qui travaille avec les conditions naturelles.",Evoluer vers des logiciels libres,,
RiedOasis,"14, rue de Daubensand",67230,OBENHEIM,48.360245	,7.694395,contact@riedoasis.org,03 88 98 49 32,www.riedoasis.org,https://www.facebook.com/Ferme-Riedoasis-190827220938407/?fref=ts,1,Panier paysan bio avec des fruits bio et des l&eacute;gumes bio produits en Alsace.\nPour une agriculture bio respectueuse des saisons et de la nature,"Perfectionner sa technique en permaculture et partager son expérience avec le grand public, les usagers du Stuck et le réseau des pros.",,
Kinésithérapeute Jean-Christophe SCHAAL,Cabinet de Sophie Neeff\n3a rue Matzenheim,67230,Sand,48.383529,7.614947,,03 88 58 74 78,,,17,Prise en charge manuelle dans le cadre de prescription de masso-kin&eacute;sith&eacute;rapie.,Être bureau d'adhésion mobile pour le Stück,,
Restaurant Doo' et bon,51 route de Strasbourg,67206,MITTELHAUSBERGEN,48.6065812,7.702701199999979,info@doo-et-bon.fr,07 71 87 12 91,www.doo-et-bon.fr,https://www.facebook.com/RestaurantDoo,16,"Petits plats avec des produits frais, de saison et issus des circuits courts.",Trouver une solution pour composter les déchets,,
Le Local,3 rue de l'Abreuvoir,67000,Strasbourg,48.578801,7.759832,lelocalbar@gmail.com,09 86 06 03 98,lelocalbar.fr/,www.facebook/lelocalbar,16,"Bar-Concert atypique favorisant les circuits-courts, bières locales et artisanales. ",Mise en place d'une démarche de tri sélectif. Possibilité de se mettre en lien avec le Rutsch qui se fait enlever son marc de café,,
YMCA - UCJG,8 rue du Fossé des Treize,67000,Strasbourg,48.589223,7.746862,,09 52 28 47 60,ucjgalsace.org,https://www.facebook.com/Ymca-Ucjg-Alsace-1571509006474188/,13,"Association de jeunesse : camps de vacances, Labos, journées, cycles de formation",Rédiger une charte de bonne conduite environnementale lors des camps.,,
Auberge du Moenkalb,Auberge du Moenkalb\nMoenkalb Maison Forestière,67140,Barr,48.41652134166462,7.431349754333496,auberge@moenkalb.fr,03 88 08 75 43,www.moenkalb.fr/,https://www.facebook.com/Auberge-du-Moenkalb-810828408952667/timeline,16,Petite auberge proposant de la petite restauration et brasserie à toute heure.,Ouvrir le restaurant pour deux manifestations culturelles,,
Biocoop G'Sundheit,19 rue du Sel,67600,Selestat,48.260068	,7.454834,biocoopgsundheit@orange.fr,03 88 82 10 97,www.biocoop.fr/magasins-bio/Trouver-mon-magasin-Biocoop/Alsace/Bas-Rhin/G-SUNDHEIT,,2,"Épicerie, fruits et légumes, rayon frais, pain, entretien, cosmétiques, diététique.",Mettre en valeur/promotion de produits locaux en stücks. Mise en valeur d'un produit par mois.,,
Le Bar'r,11 Rue de la Kirneck,67140,Barr,48.408051	,7.449459,lebarr67@gmail.com,09 86 08 30 30,lebarr.fr,https://www.facebook.com/lebarr67/,16,Bar proposant également petits déjeuners et petite restauration en continu.,"Tenter de faire rentrer son fournisseur de boissons - promocash - dans le réseau, ou sinon faire transiter les stücks par son intermédiaire vers les fournisseurs du réseau.",,
AtOmYoga,12 rue de Steinbourg,67200,Strasbourg,48.59868	,7.722189,admin@atomyoga.fr,06 85 84 47 45,atomyoga.fr/,https://www.facebook.com/atOmYoga.Om/,17,"Harmonisation du corps et de l&#39;esprit - Accompagnement global. Yoga, ayurveda, coaching intuitif, reiki, b&eacute;b&eacute;d-parents. &nbsp;",Etudier la possibilité de s'approvisionner en vrac pour ses produits de soin.,,
Com.O.resto,38 Rue de Zurich,67000,STRASBOURG,48.5796263,7.757671500000015,,03 88 35 45 30,www.como-resto.com/como_resto.php,https://www.facebook.com/Com-O-Resto-329698940391366/?fref=ts,16,"Petit resto de rue, pour manger dehors, à la maison, sur un banc, comme au restaurant.<br />\n ","Organisation d'un évènement trimestriel du stück dans ses locaux (réunion de collèges, stammstück, brunch, ?).",,
Association PAR ENchantement,55 rue de la Charmille,67200,Strasbourg,48.584061	,7.718321,contact@associationparenchantement.com, 03 88 12 37 78,www.associationparenchantement.com/,https://www.facebook.com/Association-PAR-ENchantement-784855551550601/,4,"Association familiale de quartier,  soutenant les initiatives des habitants.",Monter un club de troc avec les enfants du quartier,,
Freshmile,"Aéroport Strasbourg, Bâtiment Blériot",67960,Entzheim,48.536734	,7.632307,web@freshmile.com,03 88 25 70 58,www.freshmile.com,https://www.facebook.com/Freshmilecharge/,19,"Freshmile est un op&eacute;rateur de charge pour v&eacute;hicules &eacute;lectriques. Sa vocation est de simplifier la charge pour l&#39;utilisateur final, la gestion d&#39;un r&eacute;seau de borne pour le propri&eacute;taire et la maintenance pour le r&eacute;parateur.","Garantir les points Fresh des utilisateurs des bornes de recharge de la société par un placement sur un ISR (Investissement Socialement Responsable). Imprimer des protèges prises à l'aide d'imprimantes 3D, pour des écoles. ",,
Les Compagnons de Daoloth,"5,rue St-Anne",67100,Strasbourg,48.601986	,7.783522,compagnons.daoloth@free.fr,,www.compagnons-daoloth.net,https://www.facebook.com/compagnons.daoloth/?fref=ts,6,Compagnie de th&eacute;&acirc;tre,Utiliser des matériaux recyclés et/ou pour les décors des pièces de la compagnie.,,
Mulata Création,"10, rue des foulons",67000,Strasbourg,48.601986,7.783522,mulatacreatex@outlook.fr,06 62 49 24 25,,https://www.facebook.com/MulataCreatextile,3,Créations de vétements et d'accessoires à partir de matériaux de récupération,Créer une gamme de produits utilitaires durables à partir de chutes de production,,
Claire Lauffenburger (Médecin),"3, rue DORLAN",67600,Selestat,48.257913	,7.456907,,03 88 82 87 00,,,17,"Médecin, psychiatrie de l'enfant et de l'adolescent.",Donner du temps pour gérer un conflit interne en cas de besoin au sein du Stück,,
Association Le Stück,24 rue de Lunéville,67100,STRASBOURG,48.569956, 7.753353,contact@lestuck.eu,0650323377,www.lestuck.eu,https://www.facebook.com/lestuckstrasbourg,4,L'association Le Stück gère la monnaie locale du même nom.\nPas une hésitation : rejoignez-nous !,,1,
Rinaldi Sonia Gravure,6 chemin des seigneurs,67140,Gertwiller,48.412511	,7.462383,sonia.rinaldi@yahoo.fr,06 02 31 95 53,rinaldigravure.blogspot.fr,,3,Gravure sur pierre et &eacute;maillage sur lave.,"Elaborer une communication sur la durabilité des panneaux signalétiques en pierre (sentiers, monuments, panorama) et démarcher les collectivités.",,
Block'Out,4 Rue Alexandre Dumas,67200,Strasbourg,48.59039	,7.698795,strasbourg@blockout.fr,03 90 23 06 91,www.blockout.fr/bo-strasbourg/,https://www.facebook.com/BlockOutStrasbourg,13,"Salle d&#39;escalade:&nbsp;800 m&sup2; de bloc,&nbsp;restaurant type brasserie,&nbsp;musculation,&nbsp;sauna et hammam,&nbsp;&eacute;v&eacute;nementiel.",Organiser une journée porte ouverte pour les enfants du quartier Hautepierre.,,
Le Bien-être à Strasbourg,4A rue des roses,67100,Strasbourg,48.568761	,7.759983,contact@lebienetreastrasbourg.com,06 59 35 33 25,www.lebienetreastrasbourg.com/, https://www.facebook.com/rebeccametzger.lebienetreastrasbourg/,5,Réflexologie plantaire et massages aux huiles naturelles sur table de massage. Amma assis sur chaise ergonomique. Particuliers et entreprises,Inciter trois professionnels à adhérer au stück,,
Le Moulin,"44, route de Reichshoffen",67110,Niederbronn-les-Bains,48.941399	,7.651693,marianne.mellon@gmail.com ,03 88 09 00 37,gite.moulin.free.fr/,,10,Chambres d'hôtes dans un moulin du 18ème rénové écologiquement.,Mettre en avant la dimension écologique de son projet pour sensibiliser ses clients,,
Studio-Bis,"20, boulevard du Président Poincarré",67000,Strasbourg,48.59022	,7.742811,contact@studio-bis.fr,07 81 38 51 48 ,studio-bis.fr/,www.facebook.com/Studio-bis,5,"Pilates, au sol et sur appareils, massages Pressel\n\n ",Trouver des huiles plus proches,,
Chez Veg'Anne,17 rue du Mittenbach,67280,OBERHASLACH,48.547846	,7.317169,bienvenue@veganne.fr,06 50 60 56 30 ,www.veganne.fr/,facebook.com/chezveganne/,16,Good-truck et Traiteur 100% v&eacute;g&eacute;tal et majoritairement biologique,Se mettre en lien avec une association pour trouver des débouchés pour ses restes alimentaires (quand il y en a !),,
Néarmony,4 rue de vendenheim,67800,Hoenheim,48.62725	,7.751439,bernard.jacquin6@gmail.com,06 79 32 93 32,www.nearmony.com,www.facebook.com/nearmony/,5,"Massage Bien-&ecirc;tre, Reiki, Shiatsu. Ou comment retrouver d&eacute;tente et s&eacute;r&eacute;nit&eacute;.&nbsp;\n\n\n&nbsp;",Adopter des lessives biologiques ou maison.,,
Brasserie BAT,"2, rue de l'étang",67440,LOCHWILLER,48.69618	,7.416988,contact@brasseriebat.fr,06 81 68 91 10,,,2,Production de bi&egrave;res artisanales,Introduction du stück au bonheur est dans le pré,,
Fernex Sébastien Artiste sculpteur,Maison forestière du Landsberg,67530,ST NABOR,48.428391822577176,7.420749664306641,sebfernex@gmail.com,06 52 46 77 98,www.sebastienfernex.fr,,3,"Cr&eacute;ation de sculptures en pierre et en bois\nCours de sculptures sur pierre (gr&eacute;) et bois, &agrave; la Maison foresti&egrave;re du Landsberg (St Nabor)",Se fournir en gré dans un affleurement à proximité plutôt que d'aller dans le nord de l'Alsace,,
Sophie Messer - Etiopathe,10 Rue des Hallebardes,67000,Strasbourg,48.581907	,7.749155,sophiemesser88@gmail.com,06 31 82 10 53,www.etiopathes-est.fr/,,17,Étiopathie : thérapie manuelle traitant les causes et non les symptômes. ,Faire découvrir l'Etiopathie au grand public gratuitement lors d'une manifestation du Stück,,
Magellan Communication,20 boulevard du Président Poincaré,67200,Strasbourg,48.59022	,7.742811,sbrillais@magellan-communication.fr,06 83 34 53 12,www.magellan-communication.fr/,https://www.facebook.com/Magellan-Communication-583583965144882/,18,"Réalisation de films, vidéos et photographies ; pour le monde de l'entreprise, les associations, les collectivités etc ...",Assurer la réalisation vidéo pour un projet du Stück,,
Coopérative Essenciel,2 rue Otto Back,67200,Strasbourg,48.58602	,7.692053,alsacespirulinesolidaire@gmail.com,09 54 19 68 49,huilerit.essenciel.free.fr/benvenue-a-la-ferme-de-spiruline-de-la-scic-essenciel.html,,2,Spiruline solidaire ou locale en partenariat avec des associations humanitaires,Accoitre la visibilité sur  l'origine des produits et sur la démarche solidaire,,
Bistrot et Chocolat,8 Rue de la Râpe,67000,Strasbourg,48.581481	,7.752988,contact@bistrotetchocolat.net,03 88 36 39 60,www.bistrotetchocolat.net/,https://www.facebook.com/BistrotetChocolat,16,"Entre restaurant et de salon de thé, brunchs les week-ends. Tout est réalisé avec des produits frais et authentiques !","être plus précis et transparent sur les « achats responsables » notamment sur les labels (bio, équitable?) et sur la provenance locale des produits",,
La Villa Meteor,6 rue du général Lebocq,67270,Hochfelden,48.757146,7.567741,villa@brasserie-meteor.fr,03 88 02 22 44,www.brasserie-meteor.fr/fr/villa-meteor,https://www.facebook.com/brasserie.meteor/?fref=ts,13,Expérience ludique autour de la fabrication de la bière et l?histoire de METEOR.,Mettre en place un partenariat avec une association pour accueillir régulièrement des groupes de jeunes ZUS gratuitement pour faire visiter la villa.,,
Métal-Archi MÉTALLERIE,6 rue Sébastien Brant,67880,INNENHEIM,48.4983,7.575116,metalarchi.info@gmx.com,03 88 87 29 78,,https://www.facebook.com/chris.metal.archi/?fref=ts,3,"Garde-corps, portail, escalier (avec visualisation du projet en 3D)\nFours à tartes flambées\nCréations artistiques\n ",Tester l'utilisation de linux pour des logiciels de conception assistée par ordinateur et communiquer sur son expérimentation ,,
Anticipation Chapiteaux,3 Rue Simmesberg,67290,WINGEN SUR MODER,48.9243824,7.36991880000005,anticipationchapiteaux@hotmail.fr,06 63 55 62 61,anticipation-chapiteaux.fr,https://www.facebook.com/AnticipationChapiteaux/?fref=ts,18,Vente et location de chapiteaux et bâches\nImpression numérique grands formats,Ouvrir un compte dans une banque solidaire,,
Domaine Charles MULLER et Fils,43 impasse de la fontaine,67310,TRAENHEIM,48.594300,7.461100,earlmullercharles@hotmail.fr,03 88 50 38 04,www.alsacemuller.fr,,1,"Vigneron depuis 1580, domaine familial, en bio depuis 1998","Mettre des animaux (moutons, oies) pour désherber les vignes et laisser le tracteur au hangar.",,
Pharmacie de Meistratzheim,236 rue principale,67210,MEISTRATZHEIM,48.448021	,7.543089,,03 88 95 31 88,pharmacie.caducine.fr/340331-pharmacie-de-meistratzheim,,17,Vente de produits pharmaceutiques,Organiser le tri des déchets de la pharmacie,,
Association L'Art Change,7 rue Haute,67190,Dinsheim Sur Bruche,48.543422,7.434014,contact@artchange.fr,06 80 13 28 69,https://www.artchange.fr/,https://www.facebook.com/artchangebernardeteli,6,Ecole de Danse pluridisciplinaire et compagnie de danse professionnelle,Accueillir des stands d?info stück et communiquer auprès des adhérents de l?association.,,
Elisabeth Wolf - Kinésiologue,25 boulevard du président Wilson,67000,Strasbourg,48.589531	,7.740122,elisabethwolf.kpn@gmail.com,06 77 76 20 93,www.kinesiologieperinatale.com,,17,"Kinésiologie favorisant un état d'équilibre et de bien être physique, mental et social; s'adressant à tout public: du nouveau né à l'adulte, l'écolier ou le sportif, la femme enceinte...",Se renseigner sur les pratiques de sa banque et éventuellement en changer.,,
La Java de Lili,6 rue du Marteau,67600,Selestat,48.258683	,7.455497,lajavadelili@gmail.com,03 88 74 45 03,,https://www.facebook.com/lajavadelili/?fref=ts,21,"Bijoux, accessoires de créateurs, vêtements, meubles d'appoints.",Ajouter des fournisseurs locaux,,
Boutique Oxfam,5-7 Rue de la Division Leclerc,67000,STRASBOURG,48.580448,7.747317,laboutiquestrasbourg@oxfamfrance.org,03 88 10 81 23,www.oxfamfrance.org/,https://www.facebook.com/OxfamLaBoutiqueStrasbourg/,15,"Une autre façon d'acheter livres, CD, DVD, vêtements, objets pour la maison ; en alliant plaisir de l'achat à portée de toutes les bourses et action solidaire.",Formation des bénévoles du stück sur la prochaine campagne d'Oxfam,,
BIOGourmands,100 rue du Général Gouraud,67210,OBERNAI,48.462486229854946,7.480722516775131,info@biogourmands.bio,03 88 95 01 68,www.biogourmands.info/,http://www.facebook.com/biogourmands,2,"Restaurant, traiteur et salon de thé 100% bio à Obernai. Dégustation sur place et commande de plats à emporter (déjeuner et dîner). Pains et viennoiseries bio.",Développer leur approvisionnement local,,
Théâtre Jeune Public,1 rue du Pont Saint Martin,67000,STRASBOURG,48.580558,7.743396,reservation@tjp-strasbourg.com,03 90 23 68 68,www.tjp-strasbourg.com/,https://www.facebook.com/tjpcdnalsace/,6,"Production et diffusion de spectacles, arts de la marionnette, ateliers de pratique.",Mettre à disposition de l'association une salle de réunion pour ses besoins propres 3 fois par an. Communiquer sur le Stück auprès des fournisseurs et clients,,
Brasserie la Narcose,88 rue principale,67310,SCHARRACHBERGHEIM IRMSTETT,48.592553,7.496916,brasserielanarcose@outlook.fr,0783937053,,https://www.facebook.com/Brasserie-La-Narcose-434454743428704/?fref=ts,1,Production de bi&egrave;res artisanales et biologiques.,Concevoir un plan de rénovation des futurs locaux de manière écologique,,
Marius GRIMAUD,7 rue de la Rheinmatt,67100,STRASBOURG,48.556393,7.758768,marius.pro@grimaud.me,09 50 16 77 22,https://grimaud.me/marius/soutien-scolaire-strasbourg,https://grimaud.me/marius/soutien-scolaire-strasbourg,7,"Cours particuliers en informatique, chant, solfège, piano, soutien scolaire",Appuyer le stück sur des actions d?éducation populaire destinées au jeune public,,
A la bonne épice,3 place du marché vert,67600,SELESTAT,48.259515,7.455503,philippegeorge@aol.com,03 88 92 21 87,,https://www.facebook.com/ALaBonneEpice/?fref=ts,2,Epicerie fine bio et en vrac,Présenter le stück à l?association des commerçants de Selestat,,
Institut Effledy Russ,3 rue des Genêts,67130,RUSS,48.49386399999999,7.261471799999981,contact@effledy.fr,06 24 88 49 41,effledy.fr,effledy.fr,5,Espace de beaut&eacute; et de bien-&ecirc;tre : soins bio visage et corps ; modelages et rituels de bien-&ecirc;tre ; relaxation sensorielle...&nbsp;Sur rendez-vous &agrave; Russ et &agrave; Rosheim,Présenter le stück au réseau Proval (association des professionnels de la Vallée de la Bruche),,
Institut Effledy Rosheim,108 rue Général De Gaulle,67560,ROSHEIM,48.496381,7.470909399999982,contact@effledy.fr,06 24 88 49 41,effledy.fr,http://www.effledy.fr/,5,Espace de beaut&eacute; et de bien-&ecirc;tre : soins bio visage et corps ; modelages et rituels de bien-&ecirc;tre ; relaxation sensorielle...&nbsp;Sur rendez-vous &agrave; Russ et &agrave; Rosheim\nSur rendez-vous &agrave; Russ et &agrave; Rosheim,Présenter le stück au réseau Proval (association des professionnels de la Vallée de la Bruche),,
SPACS,Université de Strasbourg\nService pour la Promotion de l'ACtion Sociale\n43 rue Goethe,67000,STRASBOURG,48.584219,7.767646,spacs@unistra.fr,03 68 85 20 00,spacs.unistra.fr/,,4,Service pour la Promotion de l&#39;ACtion Sociale (SPACS) de l&#39;Universit&eacute; de Strasbourg,,1,
Neeff Sophie,3 rue de Matzenheim,67230,SAND,48.3832775,7.615280100000064,sophieneeff@free.fr,03 88 58 74 78,,,17,"Kin&eacute;sith&eacute;rapeute, massage chinois, aromath&eacute;rapie et &eacute;lixirs floraux.",Transférer ses actifs financiers vers de la finance responsable.,,
Loca dévore Food truck,66 rue du Leyde,67130,WILDERSBACH,48.577418,7.763875,contact@locadevore.com,0770379360,https://www.locadevore.com/,https://www.facebook.com/locadevore/?fref=ts,16,Restauration mobile locavore et en grande partie bio,Présenter le stück au drive fermier de Schirmeck,,
Nature et vie,90 rue de la vallée St Ulrich,67140,BARR,48.40545,7.426216,natureetvie@gmail.com,03 68 05 34 38,www.nature-et-vie.org/,,4,Association pour la protection de la nature et la qualité de notre cadre de vie,,,
Vodata,8 rue du Bellay,67200,Strasbourg,48.5976904,7.6967687999999725,contact@vodata.fr,07 81 71 48 17,www.vodata.fr,,12,"Récupération de données des professionnels, spécialiste RAID et serveurs.",Aider l'association Le Stück à sécuriser ses données informatiques.,,
Diskcard,8 rue du Bellay,67200,Strasbourg,48.5976905,7.6967687999999726,contact@diskcard.fr,07 81 71 48 17,diskcard.fr,,12,"Récupération de données des particuliers, spécialiste RAID et serveurs.",Aider l'association Le Stück à sécuriser ses données informatiques.,,
Atelier boutique Cerise & Coquelicot,9 rue de l?église,67680,EPFIG,48.35939,7.464242,contact@cerisecoquelicot.com,06 31 74 17 42,www.cerisecoquelicot.com/,cerise.coquelicot.1,13,"Ateliers cr&eacute;atifs (adultes et enfants), go&ucirc;ters d&rsquo;anniversaire et &eacute;v&eacute;nements\nVente d&rsquo;articles artisanaux de d&eacute;coration et accessoires de mode",,,
Le mandala,rue du faubourg de saverne,67000,STRASBOURG,48.585448,7.740433,contact@mandala-strasbourg.fr,,www.mandala-strasbourg.fr/,https://www.facebook.com/mandala.strasbourg/,16,Plats qui mêlent saveurs vietnamiennes et traditions culinaires françaises.,Structurer des liens entre les commerçants du Faubourg de Saverne,,
Déménager seul / Loc & Manut,19 Rue des Frères Lumière,67201,ECKBOLSHEIM,48.589095,7.67922,strasbourg@demenagerseul.com,03 88 23 28 82,www.demenagerseul.com/agences-demenagement/Strasbourg-Eckbolsheim/68/Alsace/67201/Bas-Rhin,https://www.facebook.com/demenagerseul.strasbourg/?fref=ts,18,Location de véhicules utilitaires et camions de déménagement.,Mettre en ?uvre la rénovation de véhicules d'occasion pour la location de camions de déménagement ,,
Métal-Archi ARCHITECTURE,6 rue Sébastien Brant,67880,INNENHEIM,48.4982530,7.575166099999934,metalarchi.info@gmx.com,03 88 87 29 78,,https://www.facebook.com/chris.metal.archi/?fref=ts,18,Architecte : formulaires et plans pour permis.,Tester l'utilisation de linux pour des logiciels de conception assistée par ordinateur et communiquer sur son expérimentation ,,
Herrmann- à Hanaufruits,rue de Riedheim,67330,BOUXWILLER,48.820832	,7.483274,contact@fruits-herrmann.fr,03 88 70 57 10,www.fruits-herrmann.fr,https://www.facebook.com/La-ferme-Herrmann-Les-jardins-gourmands-418640164982157/?fref=ts,1,"Fruits et l&eacute;gumes issus de l&#39;agriculture biologique, locale et raisonnable !",Explorer les solutions pour améliorer le traitement des déchets bois et carton.,,
KWE MIKAN,24 rue de lunéville,67100,Neudorf,48.570507,7.753099,contact@kwemikan.com,09 54 37 39 81,www.kwemikan.com,,5,"Accompagnement de vie, soins et stages pour retrouver l'harmonie","Réduire son impact environnemental en cultivant ses plantes de soin soi-même, et en réalisant ses déplacements professionnels à vélo ",,
Pôterie : Ferreira Céline,4 rue St Pierre et Paul,67560,ROSHEIM,48.496666,7.470528999999943,celine.ferreira67@gmail.com,06 74 97 79 45,,,3,"Créations céramiques, cours de modelage et de poterie; travail de développement de la créativité.",Se dégager du temps pour faire du bénévolat.,,
Restaurant Acérola,8 rue du renard prêchant,67000,STRASBOURG,48.579581,7.757256,,03 88 24 04 01,restaurant-acerola.com/,https://www.facebook.com/restaurant.acerola/?fref=ts,16,Un restaurant &nbsp;de sp&eacute;cialit&eacute;s br&eacute;siliennes &agrave; la Krutenau &agrave; l&#39;atmosph&egrave;re chaleureuse.,"Augmenter la part de produits locaux dans les ingrédients utilisés au restaurant, notamment la viande bovine. ",,
Espace culturel des bâteliers,67 cours fernand jaeger,67200,Strasbourg,48.580902,7.754791,espace-des-bateliers@orange.fr,0388370594,www.lesbateliers.com/,https://www.facebook.com/espace.bateliers?fref=ts,4,Centre cr&eacute;atif et artistique proposant des activit&eacute;s pour tous les &acirc;ges.,Réduire la quantité d'ordures ménagères,,
Dr. Isabelle Hofmann,19A rue du général De Gaulle,67450,MUNDOLSHEIM,48.64259,7.709182,,03 88 69 61 53,,,17,Médecin homéopathe uniciste,Proposer une initiation aux logiciels libres aux professionnels du réseau intéressés,,
Tibet bleu,26 Grand rue,67000,STRASBOURG,48.582521,7.740183,etibetbleu@yahoo.fr,03 88 22 49 66,,https://www.facebook.com/Tibet-Bleu-585381538178462/?fref=ts,21,"Bijoux ethniques, artisanat et spiritualité tibétaines, pierres et minéraux.",Organiser une exposition sur le thème des minorités ethniques en Chine,,
Codiak Diagnostics,75 grand rue,67000,STRASBOURG,48.581775,7.743364,vkrauth@gmail.com,0607100987,,,18,R&eacute;alisation de diagnostics &eacute;nerg&eacute;tiques.,Essayer de convaincre d?autre diagnostiqueurs de rentrer dans le réseau du stück,,
Kohler Sandra,,67600,SELESTAT,48.2605927,7.4489840999999615,contact@plumederenart.fr,+33(0)6 47 81 79 04,,,5,Praticienne en art thérapie psychocorporelle et toucher massage harmonisant,Choisir un fournisseur d?électricité verte,,
Crédit Municipal de Strasbourg,6 Rue d'Ingwiller,67000,STRASBOURG,48.5881018,7.742643300000054,info@credit-municipal-strasbourg.fr ,03 88 32 04 21,www.credit-municipal-strasbourg.fr/,https://www.facebook.com/CreditMunicipalStrasbourg,18,"Banque sociale, prêt sur gage, conseil pour le microcrédit ou l?épargne solidaire. Le Crédit Municipal de Strasbourg assure une mission de service public, avec une vocation de banque sociale, qui ?uvre dans la lutte contre l?exclusion bancaire.",,1,
Gîte Cerise & Coquelicot,9 rue de l'église,67680,EPFIG,48.35940,7.464243,contact@cerisecoquelicot.com,+33(0)6 31 74 17 42,www.cerisecoquelicot.com/,cerise.coquelicot.1,10,Meublé de tourisme pour 2 personnes au centre du village,,,
Le Magasin de la Ferme Haag,1 rue Principale,67140,ST PIERRE,48.380634,7.470030,contact@fermehaag.com,+33(0)3 88 08 83 84,fermehaag.com,,1,"Fromages fermiers, Crèmerie, Charcuterie, Epicerie. Magasin de la ferme Haag et autres produits fermiers",J?utilise les services d?une ou plusieurs structures de l?ESS,,
Aux Pains de la Vigne (siège),101 route de Colmar,67130,BELMONT,48.249626,7.437813,,03 88 57 10 15,,https://www.facebook.com/auxpainsdelavigne/,2,"Boulangerie, sandwicherie, viennoiseries, pâtisseries","Développer commerce local, acheter maximum de produits à Selestat",,
Bernadette Couture,105a rue étroite,67150,NORDHOUSE,48.447744,7.672638,,06 60 42 54 47,www.bernadette-couture-67.com/,https://www.facebook.com/Hertrich-Bernadette-1782494575312193/timeline,8,Couturi&egrave;re : retouches ou de confection de v&ecirc;tements,Travailler avec des professionnels du réseau stück (création d?un groupe habillement),,
My Sweet's,8 rue de l'angle,67210,OBERNAI,48.463104,7.476484,contact@mysweets.fr,+33(0)6 95 60 28 24,mysweets.fr,My Sweet?s traiteur,16,"P&acirc;tisserie &amp; Traiteur sur commande, Cuisine &agrave; domicile\nPour tout &eacute;v&eacute;nement priv&eacute; et professionnel\nProduits de saison, faits maison et essentiellement bio et locaux",objectif zéro déchets,,
Touch à Fleur par Cathy Ehrhart,112 rue du général gouraud,67210,OBERNAI,48.46247940000001,7.480300800000009,ehrhart@touchafleurs.fr,0388955817,www.touchafleurs.fr/,https://www.facebook.com/touchafleurs/?fref=ts,3,"Artisan fleuriste, fleurissez-vous avec élégance.",Convaincre plusieurs professionnels du réseau BNI de rejoindre le Stück.,,
Caico studio graphique,17 rue du général de Gaulle,67203,OBERSCHAEFFOLSHEIM,48.58667339999999,7.6537600999999995,contact@caico.fr,,www.caico.fr/,,20,Création de vos supports de communication,Proposer ses compétences en graphisme pour le Stück : une affiche à accrocher dans les commerces du réseau Stück,,
Valérie Joubert - Cabinet de psychologie et psychothérapie,4 rue de la 1ère armée,67000,STRASBOURG,48.578164,7.749246,cabvvbsjoubert@yahoo.fr,03 88 13 49 41,www.psycho-ressources.com/valerie-joubert.html,https://www.facebook.com/PsychoPourTous.V.Joubert/,17,Psychothérapie psychocorporelle,Contacter Enercoop pour se fournir en électricité d'origine renouvelable,,
Les Petits Bocaux,126 rue du Général Gouraud,67210,OBERNAI,48.462196,7.479598,lespetitsbocaux@gmail.com,+33(0)9 86 75 55 00,,facebook.com/lespetitsbocaux,2,"Epicerie Vrac Bio et Zéro déchet (alimentaire, beauté, entretien)",mise en place de compostage,1,
Edite Fernandes Illustration - Graphisme,25 rue du Vieux marché aux vins,67000,Strasbourg,48.584037,7.741852,edite.fernandes@wanadoo.fr,+33(0)6 25 55 85 86,editefernandes.ultra-book.com,,20,Illustration et graphisme,réduction consommation d?énergie lié au numérique,,
kiné Laurence MISSLIN,3 rue Saint Aloïse,67100,STRASBOURG,48.564998,7.760901,,0981910517,,,17,Masseur - kin&eacute;sith&eacute;rapeute et th&eacute;rapie manuelle chinoise.,Remplacer l'usage de papier jetable (table de massage) en proposant aux patients d'apporter leur propre serviette lavable.,,
OZ événements,3 quai Kléber,67000,Strasbourg,48.5865125,7.741846799999962,contact@oz-evenements.fr,07 82 67 99 66,www.oz-evenements.fr/,https://www.facebook.com/ozevenement,18,Conseil et organisation d&#39;&eacute;v&eacute;nements pour particuliers et entreprises.,Recherche et faisabilité : aller vers de nouveaux partenaires financiers éthiques >> investissement socialement responsable,,
Boulangerie Dolder,19 Rue Jean Macé,67100,STRASBOURG,48.556276,7.749594,dolder@neuf.fr,03 88 39 24 04,,https://www.facebook.com/boulangeriedolder/?fref=ts,2,"Boulangerie, pains bio.",Organiser 2 matinées de présentation du Stück à la boulangerie,,
Epicerie OH !,7 rue de la brigade Alsace-Lorraine,67000,STRASBOURG,48.577044,7.753814,contact@epicerie-oh.com,0388222423,https://epicerie-oh.com/,https://www.facebook.com/epicerieoh/?fref=ts,2,Epicerie g&eacute;n&eacute;rale de qualit&eacute;.,Proposer des paniers gourmands stück (avec des produits du réseau,,
Christine Stien sophro-relaxation,15 rue Rotland,67140,BARR,48.404438,7.447449,chris@sophro-relaxation-67.fr,06 81 25 79 64,www.sophro-relaxation-67.fr/,https://www.facebook.com/Sophro-relaxation-67-1537110019845566/,17,Massages bien-être et sophrologie,Faire adhérer au réseau d'autres professionnels sur Barr,,
Hem et vous,6 rue Sainte Madeleine,67000,STRASBOURG,48.580321,7.753347,channatra.hem@gmail.com,03 88 24 52 45,hemetvous.com/,https://www.facebook.com/hemetvous/?fref=ts,5,Salon de coiffure pour petits et grands,"Proposer des masques et mélanges à base d?huiles essentielles maison, trouver les huiles essentielles au niveau local ",,
Assistinfo,17 rue de Rosheim,67000,STRASBOURG,48.580649,7.733727,contact@assistinfo.fr,03 67 10 46 21,https://www.assistinfo.fr/,,12,"D&eacute;pannage, assistance, conseil et formation informatique &agrave; domicile","Promotion, utilisation et formation à l'utilisation de logiciels libres",,
Café Crème,64 rue de la République,67720,HOERDT,48.6962401,7.7838321000000406,info@cafecreme-hoerdt.fr,,cafecreme-hoerdt.fr,https://www.facebook.com/cafecremehoerdt/,16,"Un lieu etonnant et convivial, en plein centre de Hoerdt !",Devenir bureau de change à Hoerdt,,
Elise Rayé,202 avenue de Colmar,67100,STRASBOURG,48.557578,7.747958,,06 18 67 54 57,,https://www.facebook.com/osteopathie.EliseRaye.67/,17,Osth&eacute;opathe : techniques douces.,Mettre en place le tri des déchets,,
Le maître du thé,52 rue Schott,67000,STRASBOURG,48.603307,7.778055,lemaitreduthe@gmail.com,06 51 09 00 53,https://www.lemaitreduthe.com/,https://www.facebook.com/Le-Ma%C3%AEtre-du-th%C3%A9-122588901242822/,2,Entreprise strasbourgeoise crée en 2013 proposant des thés de qualités originaux.,Mise en place de la vente en vrac ,,
Dulcis Melodia,4 rue du château,67310,SCHARRACHBERGHEIM IRMSTETT,48.637869,7.438214,,03 88 87 13 30,www.dulcismelodia.com,https://www.facebook.com/ensembledulcismelodia,6,"Musiciens professionnels, musique ancienne, et italienne du XVIIe siècle",Stage d?été à Wasselonne  produire localement et de façon écologique l?ensemble des légumes utilisés pour repas pour les 30 stagiaires lors des journées de la musique ancienne juillet,,
Dominique Vonthron,5 rue des mineurs,67000,Strasbourg,48.587818,7.744494,dominiquevonthron@gmail.com,03 88 23 59 89,,,17,Th&eacute;rapie corporelle\nM&eacute;thodes Padovan et M&eacute;zi&egrave;res.,Participer à une formation bénévole du Stück pour améliorer son argumentaire et être une ambassadrice du Stück,,
Anastasia Cusin - Psychologue clinicienne,25 avenue du Général de Gaulle,67000,STRASBOURG,48.578166,7.769576,anastasia.cusin@gmail.com,06 71 05 63 82,https://www.pagesjaunes.fr/pros/56709121,,17,Psychologue clinicienne,Réaliser trois adhésions de professionnels à Strasbourg,,
Boulangerie Dolder dépôt de pains,95 avenue de Colmar,67100,STRASBOURG,48.567248,7.752056,dolder@neuf.fr,03 88 34 76 40,,https://www.facebook.com/boulangeriedolder/?fref=ts,2,D&eacute;p&ocirc;t de pains.,Organiser 2 matinées de présentation du Stück à la boulangerie,,
L'Ere Végane,20/22 rue de l'Elbe,67100,STRASBOURG,48.573124,7.767694,lerevegane@gmail.com,03 90 67 80 92,,https://www.facebook.com/lLEreVegane/,2,"Boutique 100% végane, épicerie, petite restauration, cosmétique et ateliers.",Accueillir un apéro usagers et organiser un de ses ateliers mensuels autour du Stück.,1,
L'Atelier d'Astrid ZM - Créer au Fil de Soi,8 rue des Champs,67190,MUTZIG,48.534244,7.463450,astridmzig@gmail.com,07 70 71 82 03,atelierastridzm.canalblog.com/,https://www.facebook.com/LAtelier-dAstrid-ZM-Cr%C3%A9er-au-Fil-de-Soi-1463028057296369/?ref=page_internal,3,Cr&eacute;ation textile et animation d&#39;ateliers textiles dans un esprit &eacute;thique et solidaire.,Créer un site internet avec un hébergement neutre en carbone,,
Made in Franz,11 rue Boistel,67115,PLOBSHEIM,48.4719452,7.726274999999987,contact@madeinfranz.fr,0388255159,madeinfranz.fr,https://www.facebook.com/MadeInFranz/,16,"Bistrot et Biergarten locavore à Plobsheim. Franz et son équipe vous propose petits plates et bières artisanales dénichés dans les fermes des environs. Au fil des saisons animations culinaires et culturelles, sensibilisation aux circuits courts.",Mettre en place un garage à vélo équipé d'un système de recharge de batterie électrique pour les clients cyclistes. Afficher une carte descriptive des produits locaux utilisés par Franz,,
Association Juste à Côté,33 avenue de la Gare,67150,ERSTEIN,48.4205074329474,7.6483941078186,justeacote67@gmail.com,06 25 68 19 68,justeacote.e-monsite.com/,https://www.facebook.com/Juste-%C3%A0-c%C3%B4t%C3%A9-640364475980801/,2,Epicerie du lycée Agricole d'Erstein,Expliquer la démarche Stück aux élèves du bac pro vente du lycée agricole d?Erstein (45 élèves),1,
K'Fet des Sciences (Amicale des Sciences),Allee Gaspard Monge,67000,STRASBOURG,48.580309,7.765764,asso@amicale-sciences.fr,03 88 85 11 73,www.amicale-sciences.fr,https://www.facebook.com/Kfet-des-Sciences-ADS-162565203772590/?ref=page_internal,16,"Petite restauration, ventes de boissons à tarification solidaire",,,
Local - Reprographie de l'Amicale des Sciences,4 Rue Blaise Pascal,67100,STRASBOURG,48.579814,7.766837,asso@amicale-sciences.fr,03 88 61 39 49,asso@amicale-sciences.fr,https://www.facebook.com/amicaledessciences.strasbourg/?fref=ts,14,"Service de reprographie, papeterie, tarification solidaire",Organiser une conférence Stück lors de la semaine de pré-rentrée 2017/2018,1,
Pascal Léval - Naturopathe,13 rue des Tourbières,67500,HAGUENAU,48.804642,7.776910,,03 88 72 18 20,www.pascal-leval.fr,,5,"Naturopathie, Bioélectronique de Vincent, Bol d'air Jacquier", Aider le Stück à s'implanter dans le Nord de l'Alsace,,
Ordidocaz,7 rue du Héron,67300,SCHILTIGHEIM,48.619856,7.770191,info@ordidocaz.com,03 88 26 26 26,www.ordidocaz.com/,https://fr-fr.facebook.com/ordi.docaz,12,"Reprise ou vente de pc occasion remis à neuf, cours initiation sur les logiciel bureautique.",Contribuer à réduire la fracture numérique,1,
Boîte Aux Clics - photographe,6 rue des Pinsons,67610,LA WANTZENAU,48.610519,7.784518,contact@boiteauxclics.com,06 20 27 93 89,www.boiteauxclics.com/,https://www.facebook.com/Photographe-Alsace-St%C3%A9phanie-Soum-Bo%C3%AEte-Aux-Clics-100884596621770/,3,"Photographe pour particuliers, associations, entreprises",Réaliser de nouvelles photos des billets de stück (pour les visuels de l?association),,
Ecrin De Sucre - Pâtisserie Boulangerie,18 rue du 22 Novembre,67270,WILWISHEIM,48.748838,7.514338,lepaindesucre0019@orange.fr,03 88 91 99 09,,https://www.facebook.com/boulangeriepatisseriewilwisheim/,2,"Boulangerie pâtisserie : pains au levain naturel, sans additifs ni conservateurs. En pâtisserie : respect des saisons et des matières premières.",Rendre la pâtisserie boulangerie autonome en énergie.,,
Restaurant La Choucrouterie,20 rue St Louis,67000,STRASBOURG,48.577984,7.745278,restaurant@choucrouterie.com,03 88 36 52 87,restaurantdelachouc.com/,https://www.facebook.com/RESTAURANT-LA-CHOUCROUTERIE-307334330046/,16,"Cadre chaleureux, ambiance conviviale, bons petits plats aux saveurs d'antan",Communiquer sur les produits,,
Bar à Popol Stuebel,25 rue du fossé des tanneurs,67000,STRASBOURG,48.583112,7.743986,barapopol@gmail.com,03 88 32 87 90,barapopol.com/,https://www.facebook.com/Bar-%C3%A0-Popol-Stuebel-1167240506659853/,16,"Bar à produits authentiques et artisanaux, issus des producteurs alsaciens. Bières de micro-brasserie en centre-ville de Strasbourg.","Réduire ses consommations d?énergie (chauffage, transports, informatique, processus de fabrication)",,
Fanny Carnec - masseuse,9 place de l'Ile de France,67100,STRASBOURG,48.550075,7.749728,fanny.carnec@hotmail.fr,07 70 40 40 50,,,5,"Massages ayurvédiques et intuitifs, magnétisme et cours de Kundalini Yoga",Echanger ses serviettes plastifiées contre des serviettes recyclables pour sa table de massage.,,
L'Espace K,7 rue du Tabac,67100,STRASBOURG,48.576593,7.729401,info@espace-k.com,03 88 22 22 03,www.espace-k.com,https://www.facebook.com/pages/Le-Kafteur/247162785406695,6,"Création de spectacles, de formation et stages de théâtre.","Faire adhérer au réseau la brasserie Matten, parler du stück dans un spectacle ou une vaseuse, et organiser l'AG du stück à l'Espace K.",,
La Maison aux Pains,56 avenue de la forêt noire,67000,STRASBOURG,48.583736,7.770855,loicgiraudeau@hotmail.com,03 88 39 96 45,,https://www.facebook.com/lamaisonauxpains/,2,Boulangerie bio à base de  variétés de blés anciens et sandwicherie,Faire un stand stück pendant un jour de marché de la marne et un lors de la rentrée universitaire,1,
La Bonumeur,"L'Effet-Mer, plan d'eau Huttenheim",67230,HUTTENHEIM,48.345548,7.580815,,,,https://www.facebook.com/standlabonumeur/,16,"Vente de crêpes, churros et glaces sur différentes animations en Alsace-Lorraine ; ainsi qu'au plan d'eau de Huttenheim. (l'Effet-Mer)\nEgalement présent au Street Food Festival à Strasbourg le 8/07/2017.",Travailler avec un nouveau prestataire dans le réseau du Stück,,
La Raison du Raisin,13 place du Vieux Port,67600,Selestat,48.257135,7.454764,philippcatt@free.fr,09 80 88 37 00,www.laraisonduraison.com,https://www.facebook.com/laraisonduraisin/,21,"Caviste de proximité proposant vins naturels, bières artisanales et spiritueux d'exception",organiser un événement avec les autres adhérents pour promouvoir le stück à sélestat,,
Association Homéo'Liz,94 Vieux Chemin de Bergheim,67600,SELESTAT,48.245672,7.426011,homeoliz@yahoo.com,,,,17,Association a but non lucratif ayant pour objectif de promouvoir l'Homéopathie uniciste. Homéo'liz organise également des consultations d'Homéopathie faites par un médecin généraliste homéopathe uniciste. ,promouvoir le Stück en favorisant son usage auprès des usagers de l'association.,,
Laure Zahnd - Kinésithérapeute,2 rue Sainte Hélène,67000,STRASBOURG,48.604431,7.779639,zahndlaure@gmail.com,0388614672,,,17,"Kinésithérapie manuelle, balnéothérapie, drainage lymphatique, rééducation périnéale",,,
Lucigaïah,108 rue du Général Gouraud,67210,OBERNAI,48.462980,7.482115,walsser.carole@gmail.com,06 07 38 02 19,https://lucigaiah.jimdo.com/,https://www.facebook.com/lucigaiah/,2,"Ateliers et cours de cuisine végétalienne, coaching pour transition alimentaire",Je m'engage à parler du Stück aux participants de mes ateliers et je réduis mes déchets en utilisant un compost.,,
Coffee Stub,12 quai des pêcheurs,67000,STRASBOURG,48.583180,7.758203,coffeestub@gmail.com,03 88 16 08 62,,https://www.facebook.com/coffeestub/,16,"Café travaillant en circuit court, torréfaction, légumes, fruits, boissons fraiches.",Le Coffee Stub s'engage à se rapprocher de moulins locaux afin de s'approvisionner en farine.,,
Vélicious Burger,20 Grand'Rue,67000,STRASBOURG,48.582451,7.739789,contact@velicious.fr,09 72 62 60 76,,https://www.facebook.com/pg/veliciousburger/,16,"Restaurant fast good végan proposant des burgers faits maison, bio et locaux.",,,
Carton Charlène,132 rue de Rossfeld,67230,HERBSHEIM,48.346533,7.630294,charlene.carton@free.fr,07 70 73 18 78,,,2,"Sur les marchés et en ambulant, produits locaux de qualité en bio ou en raisonné",Travailler avec des fournisseurs acceptant les stücks.,,
Aux pains de la Vigne (Rte Colmar),10 rue de Colmar,67600,SELESTAT,48.266853,7.454233,,09 81 06 33 96,,https://www.facebook.com/auxpainsdelavigne,2,"Pains bio, faible en gluten, sandwichs végériens/végans",,,
Aux pains de la Vigne (Rte Colmar),101 route de Colmar,67600,SELESTAT,48.266853,7.454233,,,,https://www.facebook.com/auxpainsdelavigne,2,"Pains bio, faible en gluten, sandwichs végériens/végans",,,
Correction Auditive HERT (siège),3 rue du faubourg National,67000,STRASBOURG,48.582672,7.737666,audrey.audition.hert@orange.fr,03 88 22 10 37,www.correction-auditive-hert.fr,@correctionauditivehert,17,"Spécialiste des corrections de l'audition. Adaptation, contrôle et suivi d'aide auditive sur prescription médicale","Apporter un soutien financier à l?association Haies Vives d?Alsace. Concrètement, il s?agit de convertir notre récolte de piles usagées en récoltes de graines réalisées par des personnes handicapées mentales de l?AFAEDAM",,
Correction Auditive HERT Strasbourg,3 rue du faubourg National,67000,STRASBOURG,48.582672,7.737666,audrey.audition.hert@orange.fr,03 88 22 10 37,www.correction-auditive-hert.fr,@correctionauditivehert,17,"Spécialiste des corrections de l'audition. Adaptation, contrôle et suivi d'aide auditive sur prescription médicale","Apporter un soutien financier à l?association Haies Vives d?Alsace. Concrètement, il s?agit de convertir notre récolte de piles usagées en récoltes de graines réalisées par des personnes handicapées mentales de l?AFAEDAM",,
Correction Auditive HERT Haguenau,7 rue du puits,67500,HAGUENAU,48.817273,7.790308,audrey.audition.hert@orange.fr,03 88 22 10 37,www.correction-auditive-hert.fr,@correctionauditivehert,17,"Spécialiste des corrections de l'audition. Adaptation, contrôle et suivi d'aide auditive sur prescription médicale","Apporter un soutien financier à l?association Haies Vives d?Alsace. Concrètement, il s?agit de convertir notre récolte de piles usagées en récoltes de graines réalisées par des personnes handicapées mentales de l?AFAEDAM",,
Correction Auditive HERT Illkirch,2A rue de l'industrie,67400,ILLKIRCH GRAFFENSTADEN,48.537782,7.732862,audrey.audition.hert@orange.fr,03 88 22 10 37,www.correction-auditive-hert.fr,@correctionauditivehert,17,"Spécialiste des corrections de l'audition. Adaptation, contrôle et suivi d'aide auditive sur prescription médicale","Apporter un soutien financier à l?association Haies Vives d?Alsace. Concrètement, il s?agit de convertir notre récolte de piles usagées en récoltes de graines réalisées par des personnes handicapées mentales de l?AFAEDAM",,
Correction Auditive HERT Wissembourg,2B rue du tribunal,67160,WISSEMBOURG,49.034458 ,7.945540,audrey.audition.hert@orange.fr,03 88 22 10 37,www.correction-auditive-hert.fr,@correctionauditivehert,17,"Spécialiste des corrections de l'audition. Adaptation, contrôle et suivi d'aide auditive sur prescription médicale","Apporter un soutien financier à l?association Haies Vives d?Alsace. Concrètement, il s?agit de convertir notre récolte de piles usagées en récoltes de graines réalisées par des personnes handicapées mentales de l?AFAEDAM",,
EcoCitoyens d'Erstein,8 rue du merle,67150,SCHAEFFERSHEIM,48.427564,7.620790,ecocitoyens.erstein@free.fr,03 88 98 02 38,ecocitoyens-erstein.blogspot.fr/,ecocitoyenserstein,4,"Association se sensibilisation aux enjeux environnementaux, sociaux et économiques. (penser global) créée en octobre 2008 par un groupe de citoyens du pays d'Erstein proposant à différents publics des rencontres et évènements sur le territoire de la communauté de communes du canton d'Erstein. Affilié au mouvement de transition de Rob Hopkins.",Faire adhérer au moins 3 commerçants d'Erstein sur le premier trimestre 2018,,
Wild Wedding Alsace,166 rue principale,67350,ETTENDORF,48.815312,7.589856,caroline@wildfestival.fr,06 37 61 44 54,www.wildweddingalsace.com,wildweddingalsace,4,"Annuaire, blog et inspirations pour un mariage alternatif et responsable.  \nOrganisation du festival du mariage Wild Festival éco-responsable ","Obtenir le niveau 3 (le plus élevé) de la charte d'engagement ""manifestations éco-responsables"" d'Eco-Manifestations Alsace",,
Gillet Matthieu Ethiopathe,"14, rue d'Obernai",67000,STRASBOURG,48.579405,7.732210,,,,www.facebook.com/matthieugillet.étiopathe/,17,Etiopathie : thérapie manuelle recherchant les causes et pas seulement les symptômes. ,Créer une bibliothèque partagée pour mieux se connaître et comprendre le fonctionnement de l'organisme,,
Pois de Couture,181 rue du général de Gaulle,67190,DINSHEIM SUR BRUCHE,48.540944,7.410903,poisdecouture@lilo.org,06 87 02 58 36,www.poisdecouture.fr,pois de couture,3,"Accessoires textiles écoresponsables : sacs, trousses, étuis, noeuds papillon, etc",tri des déchets au sein d'une pépinière d'entreprises. Améliorer ce tri,,
Stadt-Apotheke Kehl,Hauptstr. 75,77694,Kehl,48.5726727,7.812622099999999,info@stadt-apotheke-kehl.de,+49 (0)7851 - 2455,https://www.stadtapotheke-kehl.de/,https://www.facebook.com/stadtapo,17,Votre pharmacie à Kehl et le premier professionnel du stück outre-Rhin !,,,
Biocoop Coquelicot,6 rue de la première armée,67000,STRASBOURG,48.5780773,7.749952300000018,biocoop@coquelicot.bio,0367311311,https://www.facebook.com/coquelicot.bio,https://www.facebook.com/coquelicot.bio,2,Vente de produits bio,payer des fournisseurs en Stücks,1,
Fiduciaire ADEPT,3 quai Kléber,67000,STRASBOURG,48.5865125,7.741846799999962,fidadept@orange.fr,03 67 17 99 06,www.fiduciaireadept.com,,18,Conseil et optimisation des ressources de l'entreprise,Inciter ses salariés à utiliser la monnaie locale et faire adhérer 3 clients du cabinet à la monnaie locale,,
